[{"OBJECT_NAME":"STARLINK-35642","OBJECT_ID":"2025-257U","EPOCH":"2026-03-09T15:35:21.768864","MEAN_MOTION":15.30190026,"ECCENTRICITY":0.0001058,"INCLINATION":53.1586,"RA_OF_ASC_NODE":217.4734,"ARG_OF_PERICENTER":94.1495,"MEAN_ANOMALY":265.9627,"EPHEMERIS_TYPE":0,"CLASSIFICATION_TYPE":"U","NORAD_CAT_ID":66398,"ELEMENT_SET_NO":999,"REV_AT_EPOCH":1972,"BSTAR":0.0005005,"MEAN_MOTION_DOT":0.00014489,"MEAN_MOTION_DDOT":0},{"OBJECT_NAME":"FENGYUN 1C DEB","OBJECT_ID":"1999-025ETT","EPOCH":"2026-03-07T08:30:03.670560","MEAN_MOTION":15.28888299,"ECCENTRICITY":0.00158464,"INCLINATION":99.1103,"RA_OF_ASC_NODE":112.0072,"ARG_OF_PERICENTER":201.0032,"MEAN_ANOMALY":159.0553,"EPHEMERIS_TYPE":0,"CLASSIFICATION_TYPE":"U","NORAD_CAT_ID":38726,"ELEMENT_SET_NO":999,"REV_AT_EPOCH":71135,"BSTAR":0.013792546,"MEAN_MOTION_DOT":0.00409659,"MEAN_MOTION_DDOT":0}]
